ORBCOMM-X               
1 21576U 91050C   26012.11036747  .00000330  00000+0  11037-3 0  9996
2 21576  98.3185  79.1912 0002425 275.2532  84.8382 14.43465079812259
ORBCOMM FM01            
1 23545U 95017A   26012.16328978  .00006835  00000+0  65365-3 0  9995
2 23545  69.9616 271.7794 0004960 313.9215  46.1531 14.93635163643675
ORBCOMM FM02            
1 23546U 95017B   26012.20432441  .00008744  00000+0  79727-3 0  9990
2 23546  69.9632 290.1105 0006181 322.8977  37.1752 14.95392725643352
ORBCOMM FM08            
1 25112U 97084A   26012.28220929  .00001492  00000+0  44815-3 0  9994
2 25112  45.0142  83.4680 0008262 233.8059 126.2029 14.46731225471645
ORBCOMM FM10            
1 25113U 97084B   26012.22756934  .00001331  00000+0  40647-3 0  9990
2 25113  45.0154  86.5053 0006225 208.5094 151.5418 14.46464233646775
ORBCOMM FM11            
1 25114U 97084C   26011.92359412  .00001506  00000+0  45699-3 0  9993
2 25114  45.0140  88.9857 0007017 206.2157 153.8341 14.46212982471682
ORBCOMM FM12            
1 25115U 97084D   26012.22848006  .00001346  00000+0  41243-3 0  9993
2 25115  45.0145  87.2495 0006103 207.8468 152.2058 14.46234286471527
ORBCOMM FM09            
1 25116U 97084E   26012.21199554  .00001383  00000+0  42398-3 0  9993
2 25116  45.0150  88.4955 0006957 195.4809 164.5831 14.46068748471721
